[{"OBJECT_NAME":"STARLINK-30081","OBJECT_ID":"2023-113W","EPOCH":"2026-03-09T22:00:01.999584","MEAN_MOTION":15.27475229,"ECCENTRICITY":0.00013446,"INCLINATION":43.0008,"RA_OF_ASC_NODE":14.4731,"ARG_OF_PERICENTER":280.0341,"MEAN_ANOMALY":81.2569,"EPHEMERIS_TYPE":0,"CLASSIFICATION_TYPE":"U","NORAD_CAT_ID":57515,"ELEMENT_SET_NO":999,"REV_AT_EPOCH":567,"BSTAR":0.001883085,"MEAN_MOTION_DOT":0.00051755,"MEAN_MOTION_DDOT":0},{"OBJECT_NAME":"GEOSCAN 6 (RS92S6)","OBJECT_ID":"2025-155D","EPOCH":"2026-03-09T21:52:39.201312","MEAN_MOTION":15.27985277,"ECCENTRICITY":0.00087677,"INCLINATION":97.4466,"RA_OF_ASC_NODE":37.2933,"ARG_OF_PERICENTER":153.7679,"MEAN_ANOMALY":206.4006,"EPHEMERIS_TYPE":0,"CLASSIFICATION_TYPE":"U","NORAD_CAT_ID":64879,"ELEMENT_SET_NO":999,"REV_AT_EPOCH":6559,"BSTAR":0.00053762354,"MEAN_MOTION_DOT":0.00014633,"MEAN_MOTION_DDOT":0}]
